CCSDS_OMM_VERS,COMMENT,CREATION_DATE,ORIGINATOR,OBJECT_NAME,OBJECT_ID,CENTER_NAME,REF_FRAME,TIME_SYSTEM,MEAN_ELEMENT_THEORY,EPOCH,MEAN_MOTION,ECCENTRICITY,INCLINATION,RA_OF_ASC_NODE,ARG_OF_PERICENTER,MEAN_ANOMALY,EPHEMERIS_TYPE,CLASSIFICATION_TYPE,NORAD_CAT_ID,ELEMENT_SET_NO,REV_AT_EPOCH,BSTAR,MEAN_MOTION_DOT,MEAN_MOTION_DDOT,SEMIMAJOR_AXIS,PERIOD,APOAPSIS,PERIAPSIS,OBJECT_TYPE,RCS_SIZE,COUNTRY_CODE,LAUNCH_DATE,SITE,DECAY_DATE,FILE,GP_ID,TLE_LINE0,TLE_LINE1,TLE_LINE2,NORAD_KEY
3.0,GENERATED VIA SPACE-TRACK.ORG API,2026-05-06T14:56:52,18 SPCS,INTELSAT 10 (PAS 10),2001-019A,EARTH,TEME,UTC,SGP4,2026-05-06T12:56:01.843872,0.99039587,0.0004276,8.9775,59.6649,301.9586,279.8618,0,U,26766,999,4516,0.00000000000000,0.00000063,0.0000000000000,42513.738,1453.964,36153.782,36117.424,PAYLOAD,LARGE,US,2001-05-15,TTMTR,,5177599,322308417,0 INTELSAT 10 (PAS 10),1 26766U 01019A   26126.53891023  .00000063  00000-0  00000+0 0  9994,2 26766   8.9775  59.6649 0004276 301.9586 279.8618  0.99039587 45162,26766
3.0,GENERATED VIA SPACE-TRACK.ORG API,2026-05-06T14:46:56,18 SPCS,INTELSAT 4A-F4,1977-041A,EARTH,TEME,UTC,SGP4,2026-05-06T12:57:42.383232,0.99442009,0.0012027,8.9808,311.4219,276.6655,50.7147,0,U,10024,999,4656,0.00000000000000,0.00000089,0.0000000000000,42398.964,1448.08,36071.823,35969.836,PAYLOAD,LARGE,ITSO,1977-05-26,AFETR,,5177185,322298686,0 INTELSAT 4A-F4,1 10024U 77041A   26126.54007388  .00000089  00000-0  00000+0 0  9994,2 10024   8.9808 311.4219 0012027 276.6655  50.7147  0.99442009 46564,10024
3.0,GENERATED VIA SPACE-TRACK.ORG API,2026-05-06T14:46:56,18 SPCS,SATCOM 2,1976-029A,EARTH,TEME,UTC,SGP4,2026-05-05T23:08:56.093568,0.98622403,0.0054818,9.005,309.2385,237.1927,122.1913,0,U,8774,999,11911,0.00000000000000,-0.00000045,0.0000000000000,42633.546,1460.114,36489.119,36021.702,PAYLOAD,LARGE,US,1976-03-26,AFETR,,5177173,322298007,0 SATCOM 2,1  8774U 76029A   26125.96453812 -.00000045  00000-0  00000+0 0  9993,2  8774   9.0050 309.2385 0054818 237.1927 122.1913  0.98622403119115,8774
3.0,GENERATED VIA SPACE-TRACK.ORG API,2026-05-06T14:56:52,18 SPCS,AMC-1 (GE-1),1996-054A,EARTH,TEME,UTC,SGP4,2026-05-06T12:30:18.783072,0.99512072,0.0007049,9.0238,59.5707,244.8178,283.4739,0,U,24315,999,4582,0.00000000000000,-0.00000120,0.0000000000000,42379.061,1447.061,36030.799,35971.053,PAYLOAD,LARGE,SES,1996-09-08,AFETR,,5177531,322306015,0 AMC-1 (GE-1),1 24315U 96054A   26126.52105073 -.00000120  00000-0  00000+0 0  9992,2 24315   9.0238  59.5707 0007049 244.8178 283.4739  0.99512072 45826,24315
3.0,GENERATED VIA SPACE-TRACK.ORG API,2026-05-06T14:56:52,18 SPCS,ASIASTAR,2000-016A,EARTH,TEME,UTC,SGP4,2026-05-06T11:36:54.084384,1.00270179,0.00053,9.0343,58.5947,354.0083,90.9723,0,U,26107,999,9550,0.00000000000000,-0.00000325,0.0000000000000,42165.182,1436.12,35809.395,35764.7,PAYLOAD,LARGE,US,2000-03-21,FRGUI,,5177583,322307221,0 ASIASTAR,1 26107U 00016A   26126.48395931 -.00000325  00000-0  00000+0 0  9992,2 26107   9.0343  58.5947 0005300 354.0083  90.9723  1.00270179 95502,26107
3.0,GENERATED VIA SPACE-TRACK.ORG API,2026-05-06T14:46:56,18 SPCS,INTELSAT 4A-F3,1978-002A,EARTH,TEME,UTC,SGP4,2026-05-06T09:28:08.910912,0.99910537,0.0003481,9.072,312.9598,312.3757,48.4807,0,U,10557,999,4833,0.00000000000000,-0.00000286,0.0000000000000,42266.308,1441.289,35902.886,35873.46,PAYLOAD,LARGE,ITSO,1978-01-07,AFETR,,5177196,322298317,0 INTELSAT 4A-F3,1 10557U 78002A   26126.39454758 -.00000286  00000-0  00000+0 0  9993,2 10557   9.0720 312.9598 0003481 312.3757  48.4807  0.99910537 48331,10557
3.0,GENERATED VIA SPACE-TRACK.ORG API,2026-05-06T02:32:52,18 SPCS,USA 255,2014-043C,EARTH,TEME,UTC,SGP4,2026-05-05T14:57:27.180864,0.98729388,0.00146361,9.1395,57.6844,332.1814,240.574,0,U,40101,999,2488,0.00000000000000,-0.00000162,0.0000000000000,42602.741,1458.532,36286.96,36162.252,PAYLOAD,,US,2014-07-28,AFETR,,5176277,322224128,0 USA 255,1 40101U 14043C   26125.62323126 -.00000162  00000-0  00000-0 0  9999,2 40101   9.1395  57.6844 0014636 332.1814 240.5740  0.98729388 24889,40101
3.0,GENERATED VIA SPACE-TRACK.ORG API,2026-05-06T10:08:52,18 SPCS,BRAZILSAT B4,2000-046A,EARTH,TEME,UTC,SGP4,2026-05-06T01:08:36.604032,0.99169202,0.00048185,9.166,59.3901,242.9572,295.1967,0,U,26469,999,9434,0.00000000000000,-0.00000175,0.0000000000000,42476.686,1452.064,36119.019,36078.084,PAYLOAD,LARGE,BRAZ,2000-08-17,FRGUI,,5176958,322266059,0 BRAZILSAT B4,1 26469U 00046A   26126.04764588 -.00000175  00000-0  00000-0 0  9990,2 26469   9.1660  59.3901 0004818 242.9572 295.1967  0.99169202 94347,26469
3.0,GENERATED VIA SPACE-TRACK.ORG API,2026-05-06T14:36:32,18 SPCS,FENGYUN 2E,2008-066A,EARTH,TEME,UTC,SGP4,2026-05-06T11:18:41.279904,0.99118205,7.04e-05,9.1738,54.6285,344.2272,76.0056,0,U,33463,999,6359,0.00000000000000,0.00000033,0.0000000000000,42491.255,1452.811,36116.111,36110.128,PAYLOAD,LARGE,PRC,2008-12-23,XSC,,5176994,322292587,0 FENGYUN 2E,1 33463U 08066A   26126.47131111  .00000033  00000-0  00000+0 0  9990,2 33463   9.1738  54.6285 0000704 344.2272  76.0056  0.99118205 63596,33463
3.0,GENERATED VIA SPACE-TRACK.ORG API,2026-05-06T14:56:52,18 SPCS,COSMOS 1629,1985-016A,EARTH,TEME,UTC,SGP4,2026-05-06T12:19:21.086400,1.00293691,0.0005968,9.2051,314.7806,268.0965,12.4121,0,U,15574,999,15003,0.00000000000000,0.00000077,0.0000000000000,42158.592,1435.783,35805.617,35755.297,PAYLOAD,LARGE,CIS,1985-02-21,TTMTR,,5177372,322302517,0 COSMOS 1629,1 15574U 85016A   26126.51343850  .00000077  00000-0  00000+0 0  9991,2 15574   9.2051 314.7806 0005968 268.0965  12.4121  1.00293691150035,15574
3.0,GENERATED VIA SPACE-TRACK.ORG API,2026-05-06T10:08:52,18 SPCS,NATO 3C,1978-106A,EARTH,TEME,UTC,SGP4,2026-05-06T03:08:25.111680,0.98481093,0.00050286,9.2152,315.6806,350.1228,21.79,0,U,11115,999,65480,0.00000000000000,0.00000013,0.0000000000000,42674.319,1462.21,36317.643,36274.725,PAYLOAD,LARGE,NATO,1978-11-19,AFETR,,5176958,322261322,0 NATO 3C,1 11115U 78106A   26126.13084620  .00000013  00000-0  00000-0 0  9996,2 11115   9.2152 315.6806 0005029 350.1228  21.7900  0.98481093654800,11115
3.0,GENERATED VIA SPACE-TRACK.ORG API,2026-05-06T10:08:52,18 SPCS,NSS 7,2002-019A,EARTH,TEME,UTC,SGP4,2026-05-06T01:09:06.556320,0.99084572,0.00019476,9.2216,58.1401,352.3268,188.9141,0,U,27414,999,8804,0.00000000000000,-0.00000172,0.0000000000000,42500.87,1453.304,36131.012,36114.457,PAYLOAD,LARGE,SES,2002-04-16,FRGUI,,5176958,322266726,0 NSS 7,1 27414U 02019A   26126.04799255 -.00000172  00000-0  00000-0 0  9999,2 27414   9.2216  58.1401 0001948 352.3268 188.9141  0.99084572 88046,27414
3.0,GENERATED VIA SPACE-TRACK.ORG API,2026-05-06T14:46:56,18 SPCS,GORIZONT 11,1985-007A,EARTH,TEME,UTC,SGP4,2026-05-06T07:53:16.300032,1.00243626,0.000257,9.2343,315.8306,284.6073,77.1554,0,U,15484,999,15221,0.00000000000000,-0.00000201,0.0000000000000,42172.628,1436.5,35805.331,35783.654,PAYLOAD,LARGE,CIS,1985-01-18,TTMTR,,5177277,322300325,0 GORIZONT 11,1 15484U 85007A   26126.32866088 -.00000201  00000-0  00000+0 0  9993,2 15484   9.2343 315.8306 0002570 284.6073  77.1554  1.00243626152219,15484
3.0,GENERATED VIA SPACE-TRACK.ORG API,2026-05-06T10:08:52,18 SPCS,NILESAT 102,2000-046B,EARTH,TEME,UTC,SGP4,2026-05-06T04:20:57.325920,0.98044011,0.00040299,9.2654,59.8827,28.0902,151.8749,0,U,26470,999,4413,0.00000000000000,-0.00000118,0.0000000000000,42801.054,1468.728,36440.167,36405.67,PAYLOAD,LARGE,EGYP,2000-08-17,FRGUI,,5176958,322265559,0 NILESAT 102,1 26470U 00046B   26126.18121905 -.00000118  00000-0  00000-0 0  9994,2 26470   9.2654  59.8827 0004030  28.0902 151.8749  0.98044011 44138,26470
3.0,GENERATED VIA SPACE-TRACK.ORG API,2026-05-06T07:56:53,18 SPCS,METEOSAT 9 (MSG 2),2005-049B,EARTH,TEME,UTC,SGP4,2026-05-05T20:14:48.914880,1.00279737,8.92e-05,9.2674,54.5755,25.8122,132.8584,0,U,28912,999,657,0.00000000000000,0.00000131,0.0000000000000,42162.503,1435.983,35788.129,35780.607,PAYLOAD,LARGE,EUME,2005-12-21,FRGUI,,5176819,322255717,0 METEOSAT 9 (MSG 2),1 28912U 05049B   26125.84362170  .00000131  00000-0  00000+0 0  9991,2 28912   9.2674  54.5755 0000892  25.8122 132.8584  1.00279737  6577,28912
3.0,GENERATED VIA SPACE-TRACK.ORG API,2026-05-06T14:56:52,18 SPCS,HIMAWARI 6,2005-006A,EARTH,TEME,UTC,SGP4,2026-05-06T11:16:16.591008,0.98912033,0.0013846,9.2867,58.9263,287.2933,317.6788,0,U,28622,999,4360,0.00000000000000,-0.00000017,0.0000000000000,42550.28,1455.839,36231.06,36113.23,PAYLOAD,LARGE,JPN,2005-02-26,TNSTA,,5177637,322308953,0 HIMAWARI 6,1 28622U 05006A   26126.46963647 -.00000017  00000-0  00000+0 0  9991,2 28622   9.2867  58.9263 0013846 287.2933 317.6788  0.98912033 43601,28622
3.0,GENERATED VIA SPACE-TRACK.ORG API,2026-05-06T10:08:52,18 SPCS,AMAZONAS,2004-031A,EARTH,TEME,UTC,SGP4,2026-05-06T01:26:38.771808,0.9845922,0.0010877,9.3091,59.4299,85.8178,119.5778,0,U,28393,999,7906,0.00000000000000,-0.00000108,0.0000000000000,42680.639,1462.534,36348.928,36256.08,PAYLOAD,LARGE,BRAZ,2004-08-04,TTMTR,,5176958,322266454,0 AMAZONAS,1 28393U 04031A   26126.06017097 -.00000108  00000-0  00000-0 0  9990,2 28393   9.3091  59.4299 0010877  85.8178 119.5778  0.98459220 79066,28393
3.0,GENERATED VIA SPACE-TRACK.ORG API,2026-05-06T02:32:52,18 SPCS,NIMIQ 2,2002-062A,EARTH,TEME,UTC,SGP4,2026-05-05T12:20:45.646080,1.00272137,0.00063303,9.3493,57.3455,344.9562,257.1246,0,U,27632,999,4375,0.00000000000000,-0.00000062,0.0000000000000,42164.633,1436.092,35813.19,35759.807,PAYLOAD,LARGE,CA,2002-12-29,TTMTR,,5176277,322217572,0 NIMIQ 2,1 27632U 02062A   26125.51441720 -.00000062  00000-0  00000-0 0  9999,2 27632   9.3493  57.3455 0006330 344.9562 257.1246  1.00272137 43753,27632
